{"type":"FeatureCollection","features":[{"type":"Feature","properties":{"name":"Boulder County","region_type":"county","parent_name":"","source":"OpenStreetMap relation 1411337, simplified"},"geometry":{"type":"MultiPolygon","coordinates":[[[[-105.694362,39.949684],[-105.691761,39.946417],[-105.6932,39.941239],[-105.682942,39.933789],[-105.675798,39.932445],[-105.457342,39.932193],[-105.439766,39.936401],[-105.421219,39.930874],[-105.396614,39.932571],[-105.397849,39.912886],[-105.147342,39.913886],[-105.147041,39.928938],[-105.137604,39.928931],[-105.137576,39.939712],[-105.128165,39.939618],[-105.128002,39.954173],[-105.12116,39.952138],[-105.109517,39.956996],[-105.120837,39.951293],[-105.109333,39.950667],[-105.109364,39.943355],[-105.118739,39.943274],[-105.118961,39.933763],[-105.109414,39.925475],[-105.11345,39.931514],[-105.109236,39.936135],[-105.090853,39.936051],[-105.091072,39.943281],[-105.076637,39.943329],[-105.076568,39.950538],[-105.071899,39.950198],[-105.072002,39.95763],[-105.088654,39.958011],[-105.08794,39.959701],[-105.07895,39.961866],[-105.06742,39.971289],[-105.052797,39.977574],[-105.052847,40.000261],[-105.055513,40.000264],[-105.055568,40.005703],[-105.055089,40.261793],[-105.384789,40.26215],[-105.404709,40.258167],[-105.653321,40.260457],[-105.650825,40.253688],[-105.64402,40.249939],[-105.660006,40.248833],[-105.669046,40.224179],[-105.663156,40.22003],[-105.670303,40.219357],[-105.670559,40.207802],[-105.677645,40.202331],[-105.677554,40.188507],[-105.670364,40.184617],[-105.671791,40.180029],[-105.666919,40.169887],[-105.671477,40.16543],[-105.667729,40.158276],[-105.655996,40.151281],[-105.635656,40.146006],[-105.635468,40.140417],[-105.6297,40.13782],[-105.629983,40.130434],[-105.62609,40.127346],[-105.628782,40.123512],[-105.626566,40.118654],[-105.634652,40.113232],[-105.636681,40.106994],[-105.632022,40.097191],[-105.636004,40.084553],[-105.63262,40.081447],[-105.635429,40.074947],[-105.641121,40.073],[-105.638873,40.067031],[-105.646692,40.06522],[-105.651061,40.058445],[-105.637486,40.045845],[-105.640642,40.035019],[-105.652793,40.023772],[-105.65191,40.020905],[-105.661606,40.016466],[-105.689666,40.015541],[-105.691194,39.997313],[-105.68321,39.99465],[-105.68748,39.985418],[-105.684901,39.979447],[-105.690345,39.969855],[-105.688244,39.959765],[-105.685108,39.958741],[-105.694362,39.949684]]],[[[-105.082558,39.959288],[-105.052847,39.957831],[-105.052807,39.965874],[-105.057844,39.968537],[-105.057728,39.974685],[-105.082558,39.959288]]]]}},{"type":"Feature","properties":{"name":"Boulder","region_type":"city","parent_name":"Boulder County","source":"OpenStreetMap relation 112298, simplified"},"geometry":{"type":"MultiPolygon","coordinates":[[[[-105.295081,40.041748],[-105.293588,40.039187],[-105.292345,40.039184],[-105.293249,40.036875],[-105.291716,40.036871],[-105.293721,40.03471],[-105.292745,40.025456],[-105.296252,40.025457],[-105.296522,40.021709],[-105.29996,40.021633],[-105.298184,40.020245],[-105.300946,40.022345],[-105.301451,40.012805],[-105.298696,40.011607],[-105.293452,40.012849],[-105.293528,40.011615],[-105.290144,40.010386],[-105.291353,40.005859],[-105.289288,40.005875],[-105.289271,40.003657],[-105.2913,40.002702],[-105.290682,40.000083],[-105.283239,39.999961],[-105.282602,39.992733],[-105.27749,39.992885],[-105.277416,39.985681],[-105.286238,39.985251],[-105.286103,39.968911],[-105.276916,39.968867],[-105.276791,39.960558],[-105.274137,39.960553],[-105.274014,39.956936],[-105.260103,39.957282],[-105.260083,39.964452],[-105.248881,39.964351],[-105.246313,39.97058],[-105.231707,39.971427],[-105.231707,39.967822],[-105.229029,39.967809],[-105.224394,39.976946],[-105.22545,39.978702],[-105.228539,39.978853],[-105.2289,39.983358],[-105.232671,39.985322],[-105.213026,39.97806],[-105.212972,39.985907],[-105.226018,39.985817],[-105.226025,39.986902],[-105.220812,39.986908],[-105.220792,39.989506],[-105.226983,39.98856],[-105.226972,39.992461],[-105.220757,39.989569],[-105.217861,39.990387],[-105.217885,39.993254],[-105.224278,39.993183],[-105.225262,40.000172],[-105.215871,40.000188],[-105.215896,40.001559],[-105.213628,40.000186],[-105.213626,40.003529],[-105.210989,40.003696],[-105.214175,40.003991],[-105.21457,40.007777],[-105.212851,40.007767],[-105.214568,40.008598],[-105.21311,40.008969],[-105.216027,40.009652],[-105.216044,40.01109],[-105.213104,40.011086],[-105.214933,40.011607],[-105.21315,40.012623],[-105.207441,40.011101],[-105.207805,40.014563],[-105.205029,40.014595],[-105.205038,40.012702],[-105.206626,40.012602],[-105.198463,40.011265],[-105.19524,40.014724],[-105.206512,40.014787],[-105.206565,40.020607],[-105.211067,40.023237],[-105.211239,40.02932],[-105.220746,40.029146],[-105.220902,40.026688],[-105.224085,40.025893],[-105.224015,40.029153],[-105.225986,40.029322],[-105.225972,40.033473],[-105.221594,40.035022],[-105.220765,40.038346],[-105.21844,40.038317],[-105.218423,40.040048],[-105.233677,40.040083],[-105.234809,40.035528],[-105.237488,40.034933],[-105.240986,40.036495],[-105.238554,40.038622],[-105.243846,40.03842],[-105.239127,40.045983],[-105.243955,40.041986],[-105.24465,40.038544],[-105.253717,40.038099],[-105.254154,40.040024],[-105.245703,40.040038],[-105.244077,40.04325],[-105.244125,40.050998],[-105.24827,40.050962],[-105.248276,40.048313],[-105.249069,40.050927],[-105.253765,40.050931],[-105.253746,40.047402],[-105.248981,40.047414],[-105.248971,40.045306],[-105.25373,40.043914],[-105.253715,40.041527],[-105.256952,40.041517],[-105.259008,40.050961],[-105.280947,40.064289],[-105.28446,40.063712],[-105.284444,40.065466],[-105.282607,40.065472],[-105.283264,40.067617],[-105.291478,40.069404],[-105.291462,40.072963],[-105.286811,40.072959],[-105.2868,40.076296],[-105.283997,40.07631],[-105.282368,40.080013],[-105.298383,40.079946],[-105.298189,40.065568],[-105.297336,40.063831],[-105.295926,40.063632],[-105.293233,40.064201],[-105.291381,40.064124],[-105.297651,40.062965],[-105.301184,40.057864],[-105.301124,40.047245],[-105.294493,40.047272],[-105.293679,40.043648],[-105.295081,40.041748]],[[-105.296222,40.013719],[-105.297493,40.014448],[-105.296191,40.014443],[-105.296222,40.013719]],[[-105.295081,40.041748],[-105.294516,40.041803],[-105.294135,40.04121],[-105.294714,40.041382],[-105.295081,40.041748]],[[-105.29341,40.013067],[-105.293649,40.013235],[-105.293412,40.013208],[-105.29341,40.013067]],[[-105.292738,40.012318],[-105.293205,40.012847],[-105.292731,40.012852],[-105.292738,40.012318]],[[-105.292483,40.018148],[-105.292153,40.018384],[-105.292151,40.018129],[-105.292483,40.018148]],[[-105.290111,40.039977],[-105.291225,40.040785],[-105.289128,40.03998],[-105.290111,40.039977]],[[-105.285705,40.057678],[-105.284451,40.059876],[-105.282257,40.058968],[-105.284448,40.058208],[-105.284467,40.057228],[-105.285705,40.057678]],[[-105.283364,40.057838],[-105.282247,40.058211],[-105.282257,40.057842],[-105.283364,40.057838]],[[-105.281196,39.969628],[-105.280449,39.970188],[-105.280454,39.969624],[-105.281196,39.969628]],[[-105.281004,40.058304],[-105.280362,40.059123],[-105.280359,40.058308],[-105.281004,40.058304]],[[-105.277818,39.996651],[-105.27615,39.996108],[-105.277388,39.994025],[-105.27781,39.994017],[-105.277818,39.996651]],[[-105.272648,40.050857],[-105.271325,40.051232],[-105.270683,40.050859],[-105.271457,40.050858],[-105.272648,40.050857]],[[-105.272068,40.054013],[-105.272627,40.054539],[-105.272069,40.054541],[-105.272068,40.054013]],[[-105.272626,40.048188],[-105.270162,40.05008],[-105.263388,40.050102],[-105.263378,40.048426],[-105.26562,40.047344],[-105.272626,40.048188]],[[-105.270553,40.052908],[-105.270053,40.053666],[-105.270056,40.052911],[-105.270553,40.052908]],[[-105.270056,40.052012],[-105.270552,40.05274],[-105.270056,40.052743],[-105.270056,40.052012]],[[-105.270055,40.05383],[-105.269552,40.054503],[-105.269555,40.053834],[-105.270055,40.05383]],[[-105.267072,40.050991],[-105.265656,40.050993],[-105.265128,40.051846],[-105.265164,40.050612],[-105.267072,40.050991]],[[-105.262332,40.047367],[-105.263156,40.047829],[-105.262342,40.047823],[-105.262332,40.047367]],[[-105.261407,40.033724],[-105.260808,40.036358],[-105.260813,40.033721],[-105.261407,40.033724]],[[-105.244199,40.027397],[-105.245373,40.029214],[-105.244193,40.02921],[-105.244199,40.027397]],[[-105.242278,40.014788],[-105.241962,40.015862],[-105.241763,40.015127],[-105.242278,40.014788]],[[-105.227001,40.006597],[-105.233601,40.007379],[-105.227003,40.007385],[-105.227001,40.006597]],[[-105.230071,40.01882],[-105.23197,40.019096],[-105.230069,40.018882],[-105.230071,40.01882]],[[-105.225455,40.000078],[-105.226728,40.000737],[-105.225457,40.00127],[-105.225455,40.000078]],[[-105.224399,40.002386],[-105.22526,40.002772],[-105.224408,40.002774],[-105.224399,40.002386]],[[-105.218316,40.017647],[-105.213045,40.018174],[-105.214378,40.019575],[-105.215712,40.025078],[-105.215346,40.025102],[-105.213624,40.018955],[-105.206729,40.016396],[-105.218316,40.017647]],[[-105.21714,40.008351],[-105.216192,40.008824],[-105.21618,40.008344],[-105.21714,40.008351]],[[-105.215809,40.013718],[-105.216606,40.014459],[-105.215813,40.014528],[-105.215809,40.013718]],[[-105.215957,40.00846],[-105.214759,40.008323],[-105.215152,40.00676],[-105.215955,40.006759],[-105.215957,40.00846]],[[-105.214811,40.012198],[-105.215571,40.01296],[-105.214823,40.012956],[-105.214811,40.012198]],[[-105.214818,40.013398],[-105.213163,40.014564],[-105.213165,40.013759],[-105.214818,40.013398]],[[-105.21468,40.025478],[-105.212519,40.026209],[-105.21138,40.023888],[-105.214649,40.023936],[-105.21468,40.025478]],[[-105.208499,40.014929],[-105.210942,40.015775],[-105.208477,40.015778],[-105.208499,40.014929]]],[[[-105.283552,40.076389],[-105.278929,40.072782],[-105.263393,40.072761],[-105.263417,40.074621],[-105.237663,40.07472],[-105.239453,40.077089],[-105.239349,40.077792],[-105.238713,40.078325],[-105.263465,40.078243],[-105.263492,40.080201],[-105.277672,40.07998],[-105.277924,40.075787],[-105.282102,40.076713],[-105.282124,40.079119],[-105.283552,40.076389]],[[-105.266852,40.078016],[-105.265636,40.078029],[-105.265623,40.076136],[-105.266836,40.076135],[-105.266852,40.078016]]],[[[-105.239267,40.077293],[-105.235345,40.07196],[-105.235111,40.070124],[-105.227192,40.07088],[-105.222447,40.068987],[-105.213089,40.069172],[-105.211574,40.072795],[-105.209379,40.072795],[-105.187817,40.092026],[-105.187791,40.094434],[-105.206999,40.094466],[-105.206973,40.0889],[-105.21635,40.088923],[-105.216359,40.087139],[-105.218233,40.086407],[-105.224682,40.085599],[-105.225889,40.087938],[-105.233159,40.087274],[-105.234974,40.085324],[-105.235029,40.08014],[-105.229895,40.080074],[-105.239267,40.077293]]],[[[-105.223089,40.058313],[-105.220801,40.058285],[-105.220798,40.054662],[-105.215963,40.05462],[-105.215933,40.057108],[-105.21281,40.058224],[-105.215922,40.058253],[-105.215998,40.061762],[-105.207165,40.061701],[-105.206548,40.058461],[-105.20296,40.05894],[-105.202087,40.06055],[-105.203907,40.061876],[-105.199478,40.063702],[-105.19279,40.061957],[-105.196642,40.065519],[-105.202227,40.065535],[-105.202186,40.069134],[-105.19823,40.069116],[-105.197163,40.072638],[-105.188061,40.072616],[-105.188057,40.069148],[-105.183355,40.069128],[-105.182781,40.067932],[-105.178363,40.069134],[-105.178568,40.072901],[-105.193725,40.072941],[-105.194252,40.075953],[-105.19087,40.075068],[-105.188062,40.0762],[-105.187844,40.090197],[-105.223089,40.058313]]],[[[-105.213697,40.017435],[-105.211007,40.017182],[-105.212686,40.018011],[-105.213697,40.017435]]]]}},{"type":"Feature","properties":{"name":"Downtown Boulder","region_type":"commercial_district","parent_name":"Boulder","source":"City of Boulder Downtown Subarea Plan"},"geometry":{"type":"Polygon","coordinates":[[[-105.284461,40.019099],[-105.284305,40.018631],[-105.284093,40.018129],[-105.283999,40.017909],[-105.283913,40.017629],[-105.283809,40.017101],[-105.283798,40.01681],[-105.283753,40.016575],[-105.283579,40.01608],[-105.283255,40.015101],[-105.283231,40.015003],[-105.283238,40.014904],[-105.283305,40.014635],[-105.283479,40.013739],[-105.283479,40.013508],[-105.283451,40.013355],[-105.2834,40.013177],[-105.282868,40.013268],[-105.281868,40.013475],[-105.280509,40.013751],[-105.280036,40.013835],[-105.278674,40.014111],[-105.277365,40.014367],[-105.276435,40.014545],[-105.276072,40.014583],[-105.275343,40.014586],[-105.274657,40.014588],[-105.273633,40.014591],[-105.272562,40.014595],[-105.272563,40.015003],[-105.272571,40.015412],[-105.272566,40.015863],[-105.272582,40.016115],[-105.272753,40.017174],[-105.27278,40.01727],[-105.272921,40.017743],[-105.273091,40.018231],[-105.273265,40.018739],[-105.273439,40.019246],[-105.273615,40.019745],[-105.273786,40.020257],[-105.273964,40.020758],[-105.274128,40.021264],[-105.275451,40.020993],[-105.276762,40.020726],[-105.278079,40.020457],[-105.279367,40.020188],[-105.28068,40.019919],[-105.281886,40.01965],[-105.281986,40.019608],[-105.283475,40.019297],[-105.284461,40.019099]]]}},{"type":"Feature","properties":{"name":"Pearl Street Mall","region_type":"pedestrian_mall","parent_name":"Downtown Boulder","source":"OpenStreetMap landuse=retail ways 168909353, 1443546031, 1443546043"},"geometry":{"type":"MultiPolygon","coordinates":[[[[-105.280262,40.018332],[-105.280116,40.017965],[-105.280018,40.017986],[-105.279944,40.018002],[-105.279952,40.018025],[-105.280047,40.018302],[-105.280078,40.01839],[-105.280048,40.018395],[-105.280025,40.018398],[-105.279943,40.018415],[-105.279518,40.018528],[-105.27948,40.018512],[-105.279396,40.018529],[-105.279381,40.018487],[-105.279281,40.018508],[-105.279294,40.018547],[-105.279233,40.018559],[-105.279198,40.018458],[-105.279136,40.01847],[-105.279172,40.018574],[-105.279004,40.018611],[-105.278957,40.018618],[-105.278932,40.018622],[-105.278839,40.018379],[-105.278814,40.018342],[-105.278787,40.018315],[-105.278769,40.018277],[-105.278732,40.018149],[-105.278681,40.018022],[-105.278692,40.017957],[-105.278691,40.017916],[-105.278596,40.017664],[-105.278624,40.017655],[-105.278668,40.017643],[-105.27892,40.0176],[-105.279,40.017583],[-105.27899,40.017551],[-105.279726,40.017426],[-105.279814,40.01738],[-105.279946,40.017353],[-105.281034,40.017172],[-105.281063,40.017177],[-105.281133,40.017369],[-105.281204,40.017407],[-105.281237,40.017536],[-105.28131,40.01771],[-105.281389,40.017869],[-105.281476,40.018118],[-105.281349,40.018116],[-105.280429,40.01832],[-105.280304,40.018343],[-105.280286,40.018348],[-105.280253,40.018359],[-105.280245,40.018341],[-105.280249,40.018337],[-105.280262,40.018332]]],[[[-105.277346,40.018452],[-105.27737,40.018525],[-105.27741,40.018634],[-105.277362,40.01864],[-105.277426,40.018822],[-105.277398,40.018828],[-105.277371,40.018835],[-105.277055,40.018898],[-105.276928,40.018925],[-105.276902,40.018932],[-105.276884,40.018937],[-105.276862,40.01894],[-105.276772,40.018958],[-105.27676,40.018926],[-105.276668,40.018945],[-105.27671,40.01907],[-105.276539,40.019111],[-105.276375,40.019146],[-105.276343,40.019151],[-105.276306,40.019158],[-105.276239,40.018961],[-105.276209,40.018965],[-105.276162,40.018808],[-105.276158,40.018791],[-105.276151,40.018774],[-105.276085,40.018606],[-105.276081,40.018591],[-105.276075,40.018574],[-105.27607,40.018558],[-105.276025,40.018427],[-105.276058,40.01842],[-105.275993,40.018225],[-105.276027,40.018221],[-105.276054,40.01822],[-105.276178,40.018194],[-105.276186,40.018232],[-105.276267,40.018217],[-105.276296,40.018298],[-105.276378,40.018283],[-105.276335,40.018167],[-105.276391,40.018155],[-105.276382,40.018129],[-105.276557,40.018094],[-105.276804,40.018041],[-105.276901,40.018021],[-105.277093,40.017984],[-105.277114,40.01798],[-105.277137,40.017975],[-105.277246,40.018286],[-105.277255,40.018297],[-105.277284,40.018309],[-105.277298,40.018315],[-105.277304,40.018323],[-105.277314,40.018359],[-105.277346,40.018452]]],[[[-105.278701,40.018286],[-105.278744,40.01842],[-105.278651,40.018437],[-105.278637,40.018442],[-105.2786,40.018331],[-105.278546,40.018316],[-105.278476,40.018329],[-105.278444,40.018336],[-105.278417,40.018341],[-105.278182,40.018386],[-105.278118,40.018399],[-105.27808,40.018413],[-105.278007,40.018428],[-105.277759,40.018478],[-105.277741,40.018482],[-105.277716,40.018487],[-105.2776,40.01851],[-105.277568,40.018549],[-105.277577,40.01858],[-105.277527,40.018593],[-105.27746,40.018551],[-105.277445,40.018511],[-105.277418,40.018438],[-105.277385,40.018345],[-105.277372,40.018304],[-105.277401,40.018261],[-105.277404,40.018249],[-105.277302,40.017937],[-105.277326,40.017932],[-105.27735,40.017927],[-105.277609,40.017864],[-105.277704,40.017844],[-105.277861,40.017817],[-105.277946,40.017799],[-105.278043,40.017779],[-105.278081,40.017886],[-105.278166,40.017868],[-105.278253,40.017851],[-105.278215,40.017741],[-105.278328,40.017718],[-105.278393,40.017705],[-105.278421,40.017699],[-105.278446,40.017695],[-105.278543,40.017998],[-105.278606,40.01804],[-105.278657,40.018165],[-105.278701,40.018286]]]]}}]}
